CCSDS_OMM_VERS = 2.0
CREATION_DATE  = 
ORIGINATOR     = 

OBJECT_NAME    = STARLINK-36889
OBJECT_ID      = 2026-039W
CENTER_NAME    = EARTH
REF_FRAME      = TEME
TIME_SYSTEM    = UTC
MEAN_ELEMENT_THEORY = SGP/SGP4

EPOCH          = 2026-03-21T12:00:00.999648
MEAN_MOTION    = 15.50663530
ECCENTRICITY   = .00011852
INCLINATION    = 43.0000
RA_OF_ASC_NODE = 343.5791
ARG_OF_PERICENTER = 252.2294
MEAN_ANOMALY   = 124.8731

EPHEMERIS_TYPE = 0
CLASSIFICATION_TYPE = U
NORAD_CAT_ID   = 68006
ELEMENT_SET_NO = 999
REV_AT_EPOCH   = 477
BSTAR          = -.30271331E-2
MEAN_MOTION_DOT = -.174549E-2
MEAN_MOTION_DDOT = 0

CCSDS_OMM_VERS = 2.0
CREATION_DATE  = 
ORIGINATOR     = 

OBJECT_NAME    = STARLINK-36592
OBJECT_ID      = 2026-039X
CENTER_NAME    = EARTH
REF_FRAME      = TEME
TIME_SYSTEM    = UTC
MEAN_ELEMENT_THEORY = SGP/SGP4

EPOCH          = 2026-03-21T12:00:00.999648
MEAN_MOTION    = 15.52231465
ECCENTRICITY   = .00015038
INCLINATION    = 42.9998
RA_OF_ASC_NODE = 343.2785
ARG_OF_PERICENTER = 265.5844
MEAN_ANOMALY   = 233.1002

EPHEMERIS_TYPE = 0
CLASSIFICATION_TYPE = U
NORAD_CAT_ID   = 68007
ELEMENT_SET_NO = 999
REV_AT_EPOCH   = 477
BSTAR          = -.33473523E-1
MEAN_MOTION_DOT = -.1843654E-1
MEAN_MOTION_DDOT = 0

CCSDS_OMM_VERS = 2.0
CREATION_DATE  = 
ORIGINATOR     = 

OBJECT_NAME    = STARLINK-36911
OBJECT_ID      = 2026-039Y
CENTER_NAME    = EARTH
REF_FRAME      = TEME
TIME_SYSTEM    = UTC
MEAN_ELEMENT_THEORY = SGP/SGP4

EPOCH          = 2026-03-21T12:00:00.999648
MEAN_MOTION    = 15.50508660
ECCENTRICITY   = .00013961
INCLINATION    = 42.9996
RA_OF_ASC_NODE = 343.3653
ARG_OF_PERICENTER = 274.2929
MEAN_ANOMALY   = 189.2461

EPHEMERIS_TYPE = 0
CLASSIFICATION_TYPE = U
NORAD_CAT_ID   = 68008
ELEMENT_SET_NO = 999
REV_AT_EPOCH   = 477
BSTAR          = .10405532E-2
MEAN_MOTION_DOT = .61026E-3
MEAN_MOTION_DDOT = 0

CCSDS_OMM_VERS = 2.0
CREATION_DATE  = 
ORIGINATOR     = 

OBJECT_NAME    = STARLINK-36956
OBJECT_ID      = 2026-039Z
CENTER_NAME    = EARTH
REF_FRAME      = TEME
TIME_SYSTEM    = UTC
MEAN_ELEMENT_THEORY = SGP/SGP4

EPOCH          = 2026-03-21T12:00:00.999648
MEAN_MOTION    = 15.50586712
ECCENTRICITY   = .0001975
INCLINATION    = 42.9999
RA_OF_ASC_NODE = 343.4306
ARG_OF_PERICENTER = 256.4746
MEAN_ANOMALY   = 180.1667

EPHEMERIS_TYPE = 0
CLASSIFICATION_TYPE = U
NORAD_CAT_ID   = 68009
ELEMENT_SET_NO = 999
REV_AT_EPOCH   = 477
BSTAR          = -.13959378E-2
MEAN_MOTION_DOT = -.81415E-3
MEAN_MOTION_DDOT = 0

CCSDS_OMM_VERS = 2.0
CREATION_DATE  = 
ORIGINATOR     = 

OBJECT_NAME    = STARLINK-36953
OBJECT_ID      = 2026-039AA
CENTER_NAME    = EARTH
REF_FRAME      = TEME
TIME_SYSTEM    = UTC
MEAN_ELEMENT_THEORY = SGP/SGP4

EPOCH          = 2026-03-21T12:00:00.999648
MEAN_MOTION    = 15.57029775
ECCENTRICITY   = .00015894
INCLINATION    = 42.9998
RA_OF_ASC_NODE = 342.9554
ARG_OF_PERICENTER = 249.8718
MEAN_ANOMALY   = 18.5196

EPHEMERIS_TYPE = 0
CLASSIFICATION_TYPE = U
NORAD_CAT_ID   = 68010
ELEMENT_SET_NO = 999
REV_AT_EPOCH   = 477
BSTAR          = -.29297449E-1
MEAN_MOTION_DOT = -.1918022E-1
MEAN_MOTION_DDOT = 0

CCSDS_OMM_VERS = 2.0
CREATION_DATE  = 
ORIGINATOR     = 

OBJECT_NAME    = STARLINK-36991
OBJECT_ID      = 2026-039AB
CENTER_NAME    = EARTH
REF_FRAME      = TEME
TIME_SYSTEM    = UTC
MEAN_ELEMENT_THEORY = SGP/SGP4

EPOCH          = 2026-03-21T12:00:00.999648
MEAN_MOTION    = 15.50699719
ECCENTRICITY   = .00021812
INCLINATION    = 43.0000
RA_OF_ASC_NODE = 344.1080
ARG_OF_PERICENTER = 271.1844
MEAN_ANOMALY   = 251.1709

EPHEMERIS_TYPE = 0
CLASSIFICATION_TYPE = U
NORAD_CAT_ID   = 68011
ELEMENT_SET_NO = 999
REV_AT_EPOCH   = 477
BSTAR          = -.43537224E-2
MEAN_MOTION_DOT = -.248903E-2
MEAN_MOTION_DDOT = 0

CCSDS_OMM_VERS = 2.0
CREATION_DATE  = 
ORIGINATOR     = 

OBJECT_NAME    = STARLINK-36936
OBJECT_ID      = 2026-039AC
CENTER_NAME    = EARTH
REF_FRAME      = TEME
TIME_SYSTEM    = UTC
MEAN_ELEMENT_THEORY = SGP/SGP4

EPOCH          = 2026-03-21T12:00:00.999648
MEAN_MOTION    = 15.50614656
ECCENTRICITY   = .00016696
INCLINATION    = 43.0000
RA_OF_ASC_NODE = 343.3911
ARG_OF_PERICENTER = 264.8075
MEAN_ANOMALY   = 187.2571

EPHEMERIS_TYPE = 0
CLASSIFICATION_TYPE = U
NORAD_CAT_ID   = 68012
ELEMENT_SET_NO = 999
REV_AT_EPOCH   = 477
BSTAR          = -.20757985E-2
MEAN_MOTION_DOT = -.12042E-2
MEAN_MOTION_DDOT = 0

CCSDS_OMM_VERS = 2.0
CREATION_DATE  = 
ORIGINATOR     = 

OBJECT_NAME    = STARLINK-36967
OBJECT_ID      = 2026-039AD
CENTER_NAME    = EARTH
REF_FRAME      = TEME
TIME_SYSTEM    = UTC
MEAN_ELEMENT_THEORY = SGP/SGP4

EPOCH          = 2026-03-21T12:00:00.999648
MEAN_MOTION    = 15.50667651
ECCENTRICITY   = .0001622
INCLINATION    = 43.0002
RA_OF_ASC_NODE = 344.0346
ARG_OF_PERICENTER = 260.1171
MEAN_ANOMALY   = 292.1237

EPHEMERIS_TYPE = 0
CLASSIFICATION_TYPE = U
NORAD_CAT_ID   = 68013
ELEMENT_SET_NO = 999
REV_AT_EPOCH   = 477
BSTAR          = -.34793096E-2
MEAN_MOTION_DOT = -.199967E-2
MEAN_MOTION_DDOT = 0

CCSDS_OMM_VERS = 2.0
CREATION_DATE  = 
ORIGINATOR     = 

OBJECT_NAME    = STARLINK-36985
OBJECT_ID      = 2026-039AE
CENTER_NAME    = EARTH
REF_FRAME      = TEME
TIME_SYSTEM    = UTC
MEAN_ELEMENT_THEORY = SGP/SGP4

EPOCH          = 2026-03-21T12:00:00.999648
MEAN_MOTION    = 15.57519020
ECCENTRICITY   = .0001703
INCLINATION    = 42.9996
RA_OF_ASC_NODE = 342.9078
ARG_OF_PERICENTER = 253.3773
MEAN_ANOMALY   = 33.9900

EPHEMERIS_TYPE = 0
CLASSIFICATION_TYPE = U
NORAD_CAT_ID   = 68014
ELEMENT_SET_NO = 999
REV_AT_EPOCH   = 477
BSTAR          = -.28804363E-1
MEAN_MOTION_DOT = -.1920735E-1
MEAN_MOTION_DDOT = 0

CCSDS_OMM_VERS = 2.0
CREATION_DATE  = 
ORIGINATOR     = 

OBJECT_NAME    = STARLINK-36335
OBJECT_ID      = 2026-040A
CENTER_NAME    = EARTH
REF_FRAME      = TEME
TIME_SYSTEM    = UTC
MEAN_ELEMENT_THEORY = SGP/SGP4

EPOCH          = 2026-03-21T12:00:00.999648
MEAN_MOTION    = 15.75087292
ECCENTRICITY   = .00017892
INCLINATION    = 97.2840
RA_OF_ASC_NODE = 29.5232
ARG_OF_PERICENTER = 121.5316
MEAN_ANOMALY   = 258.1686

EPHEMERIS_TYPE = 0
CLASSIFICATION_TYPE = U
NORAD_CAT_ID   = 68015
ELEMENT_SET_NO = 999
REV_AT_EPOCH   = 427
BSTAR          = .74547124E-3
MEAN_MOTION_DOT = .112036E-2
MEAN_MOTION_DDOT = 0

CCSDS_OMM_VERS = 2.0
CREATION_DATE  = 
ORIGINATOR     = 

OBJECT_NAME    = STARLINK-36923
OBJECT_ID      = 2026-040B
CENTER_NAME    = EARTH
REF_FRAME      = TEME
TIME_SYSTEM    = UTC
MEAN_ELEMENT_THEORY = SGP/SGP4

EPOCH          = 2026-03-21T12:00:00.999648
MEAN_MOTION    = 15.75258304
ECCENTRICITY   = .00015956
INCLINATION    = 97.2854
RA_OF_ASC_NODE = 29.5273
ARG_OF_PERICENTER = 104.6416
MEAN_ANOMALY   = 281.0631

EPHEMERIS_TYPE = 0
CLASSIFICATION_TYPE = U
NORAD_CAT_ID   = 68016
ELEMENT_SET_NO = 999
REV_AT_EPOCH   = 432
BSTAR          = -.11646463E-2
MEAN_MOTION_DOT = -.17093E-2
MEAN_MOTION_DDOT = 0

CCSDS_OMM_VERS = 2.0
CREATION_DATE  = 
ORIGINATOR     = 

OBJECT_NAME    = STARLINK-36568
OBJECT_ID      = 2026-040C
CENTER_NAME    = EARTH
REF_FRAME      = TEME
TIME_SYSTEM    = UTC
MEAN_ELEMENT_THEORY = SGP/SGP4

EPOCH          = 2026-03-21T12:00:00.999648
MEAN_MOTION    = 15.75257680
ECCENTRICITY   = .00013073
INCLINATION    = 97.2853
RA_OF_ASC_NODE = 29.5283
ARG_OF_PERICENTER = 89.5868
MEAN_ANOMALY   = 300.1221

EPHEMERIS_TYPE = 0
CLASSIFICATION_TYPE = U
NORAD_CAT_ID   = 68017
ELEMENT_SET_NO = 999
REV_AT_EPOCH   = 432
BSTAR          = -.15321421E-2
MEAN_MOTION_DOT = -.223444E-2
MEAN_MOTION_DDOT = 0

